LEMUR-1                 
1 40044U 14033AL  26183.65402084  .00002142  00000+0  25034-3 0  9997
2 40044  97.7894 333.1168 0048828  28.9592 331.4316 14.85304077647768
LEMUR-2-GREENBERG       
1 42837U 17042N   26183.44087914  .00018876  00000+0  61596-3 0  9994
2 42837  97.3821   3.9997 0007361 314.4410  45.6229 15.31801365490720
LEMUR-2-ANDIS           
1 42838U 17042P   26183.30425536  .00024871  00000+0  72221-3 0  9995
2 42838  97.3677   4.1010 0007223 312.6706  47.3928 15.35457580490774
LEMUR-2-MONSON          
1 42839U 17042Q   26183.48288321  .00016981  00000+0  61478-3 0  9999
2 42839  97.4083   3.9902 0005195 303.7644  56.3100 15.28457256490507
LEMUR-2-FURIAUS         
1 42840U 17042R   26183.44524627  .00020324  00000+0  68474-3 0  9998
2 42840  97.3770   1.9246 0007034  18.4944 341.6552 15.30756023490549
LEMUR-2-PETERG          
1 42841U 17042S   26183.49330649  .00028096  00000+0  83914-3 0  9993
2 42841  97.3990   8.5541 0002735 283.0765  77.0173 15.34567884490783
LEMUR-2-DEMBITZ         
1 42842U 17042T   26183.46488202  .00018968  00000+0  63943-3 0  9997
2 42842  97.3821   4.9796 0005474 331.2654  28.8285 15.30760619490689
LEMUR-2-ZACHARY         
1 42845U 17042W   26183.48146721  .00051958  00000+0  87210-3 0  9998
2 42845  97.3581  15.4561 0002291 314.2568  45.8496 15.51636702491571
LEMUR-2-AMANDA-SVANTE   
1 48269U 21034B   26183.48382879  .00036203  00000+0  10566-2 0  9991
2 48269  97.5757 262.1817 0003801 171.5617 188.5691 15.35240355283406
LEMUR-2-SPECIAL-K       
1 48273U 21034F   26183.22285882  .00221709  00000+0  18431-2 0  9990
2 48273  97.5644 271.2193 0005400 221.4066 138.6787 15.69457826284047
LEMUR-2-EMBRIONOVIS     
1 56970U 23084AQ  26183.36371881  .00015319  00000+0  41231-3 0  9993
2 56970  97.6312 328.1499 0007548 257.5694 102.4705 15.37934897170019
LEMUR-2-DEVERILL-M-T    
1 57391U 23100F   26183.56773895  .00026718  00000+0  65917-3 0  9995
2 57391  99.4457 226.7754 0005010 352.1145   8.0015 15.40525966163619
LEMUR-2-BASS            
1 58259U 23174D   26183.51178840  .00020960  00000+0  46665-3 0  9996
2 58259  97.3850 268.4428 0008087 115.9638 244.2444 15.43615925147729
LEMUR-2-JK0903EM1407    
1 58336U 23174CJ  26183.55281392  .00027480  00000+0  44960-3 0  9993
2 58336  97.3930 274.4637 0004643  73.7963 286.3801 15.52477275148111
LEMUR-2-MJR092620       
1 58340U 23174CN  26183.50717895  .00021474  00000+0  44953-3 0  9994
2 58340  97.3980 273.8231 0006365  71.8734 288.3207 15.45448019148019
LEMUR-2-NIMBUS2000      
1 58899U 24022A   26183.54051242  .00023509  00000+0  57718-3 0  9991
2 58899  97.4088  33.7389 0009881  69.3006 290.9299 15.40633822134631
LEMUR-2-VALHALLA        
1 58900U 24022B   26183.54069101  .00016719  00000+0  41808-3 0  9995
2 58900  97.4086  33.7200 0010389  65.0713 295.1611 15.40141147134636
LEMUR-2-CAEL            
1 58903U 24022E   26183.53739264  .00018231  00000+0  43627-3 0  9993
2 58903  97.4070  34.6798 0008454  52.0014 308.1995 15.41477067134706
LEMUR-2-JOHNNYTRUONG    
1 59146U 24043BA  26183.40661383  .00045845  00000+0  53210-3 0  9998
2 59146  97.5387 336.0648 0004628 130.9750 229.1908 15.61639664130418
LEMUR-2-TOMATOKECHUP    
1 60471U 24149D   26183.48007860  .00012414  00000+0  35230-3 0  9998
2 60471  97.3797 265.5683 0002697 145.8168 214.3251 15.36351722104518
LEMUR-2-STELLA          
1 60533U 24149BT  26183.17109079  .00013479  00000+0  78522-3 0  9991
2 60533  97.6740 265.6937 0001148 101.5384 258.5975 15.12128587102763
LEMUR-2-MARHISYAM       
1 60536U 24149BW  26183.48794242  .00011348  00000+0  67230-3 0  9997
2 60536  97.6884 266.4769 0003268  90.7390 269.4214 15.11560020102799
LEMUR-2-AHMED-ASRAR     
1 60576U 24149DN  26183.50719042  .00013895  00000+0  78865-3 0  9994
2 60576  97.7010 268.6488 0000513 328.7349  31.3850 15.13059698102883
LEMUR-2-LLOYD           
1 60577U 24149DP  26183.48883885  .00011920  00000+0  74606-3 0  9995
2 60577  97.6750 264.6282 0005228 101.9069 258.2746 15.09540030102705
LEMUR-2-SQUIRRELCOMM    
1 60578U 24149DQ  26183.45837329  .00007094  00000+0  47354-3 0  9992
2 60578  97.6704 264.3223 0005219  14.8025 345.3354 15.07322444102709
LEMUR-2-SIERRINI        
1 60579U 24149DR  26183.51453876  .00014106  00000+0  84074-3 0  9993
2 60579  97.6844 266.1769 0006366 123.5088 236.6750 15.11275305102778
LEMUR-2-WILSON          
1 62694U 25009CP  26183.48714326  .00003046  00000+0  28214-3 0  9990
2 62694  97.7021 261.6834 0002908  15.7604 344.3707 14.95230365 79649
LEMUR-2-STAR-FOX        
1 62696U 25009CR  26183.47577648  .00008884  00000+0  66947-3 0  9995
2 62696  97.6947 264.9756 0004028  80.7159 279.4522 15.02703717 79859
LEMUR-2-ARIANNA         
1 62699U 25009CU  26183.20788418  .00008846  00000+0  66677-3 0  9996
2 62699  97.6888 264.4724 0004353  85.8139 274.3583 15.02696305 79812
LEMUR-2-ALISIA          
1 62706U 25009DB  26183.18296931  .00010404  00000+0  77726-3 0  9996
2 62706  97.6944 265.2496 0003094 170.5758 189.5526 15.02990865102414
