OBJECT_NAME,OBJECT_ID,EPOCH,MEAN_MOTION,ECCENTRICITY,INCLINATION,RA_OF_ASC_NODE,ARG_OF_PERICENTER,MEAN_ANOMALY,EPHEMERIS_TYPE,CLASSIFICATION_TYPE,NORAD_CAT_ID,ELEMENT_SET_NO,REV_AT_EPOCH,BSTAR,MEAN_MOTION_DOT,MEAN_MOTION_DDOT
LEMUR-1,2014-033AL,2026-07-02T15:41:47.400576,14.85304077,.00488285,97.7894,333.1168,28.9592,331.4316,0,U,40044,999,64776,.25034152E-3,.2142E-4,0
LEMUR-2-GREENBERG,2017-042N,2026-07-02T10:34:51.957696,15.31801365,.00073613,97.3821,3.9997,314.4410,45.6229,0,U,42837,999,49072,.61595773E-3,.18876E-3,0
LEMUR-2-ANDIS,2017-042P,2026-07-02T07:18:07.663104,15.35457580,.00072231,97.3677,4.1010,312.6706,47.3928,0,U,42838,999,49077,.72220753E-3,.24871E-3,0
LEMUR-2-MONSON,2017-042Q,2026-07-02T11:35:21.109344,15.28457256,.00051951,97.4083,3.9902,303.7644,56.3100,0,U,42839,999,49050,.614779E-3,.16981E-3,0
LEMUR-2-FURIAUS,2017-042R,2026-07-02T10:41:09.277728,15.30756023,.00070345,97.3770,1.9246,18.4944,341.6552,0,U,42840,999,49054,.68473573E-3,.20324E-3,0
LEMUR-2-PETERG,2017-042S,2026-07-02T11:50:21.680736,15.34567884,.00027353,97.3990,8.5541,283.0765,77.0173,0,U,42841,999,49078,.83913871E-3,.28096E-3,0
LEMUR-2-DEMBITZ,2017-042T,2026-07-02T11:09:25.806528,15.30760619,.00054743,97.3821,4.9796,331.2654,28.8285,0,U,42842,999,49068,.63942591E-3,.18968E-3,0
LEMUR-2-ZACHARY,2017-042W,2026-07-02T11:33:18.766944,15.51636702,.00022914,97.3581,15.4561,314.2568,45.8496,0,U,42845,999,49157,.8720965E-3,.51958E-3,0
LEMUR-2-AMANDA-SVANTE,2021-034B,2026-07-02T11:36:42.807456,15.35240355,.00038011,97.5757,262.1817,171.5617,188.5691,0,U,48269,999,28340,.10566035E-2,.36203E-3,0
LEMUR-2-SPECIAL-K,2021-034F,2026-07-02T05:20:55.002048,15.69457826,.00054009,97.5644,271.2193,221.4066,138.6787,0,U,48273,999,28404,.18431217E-2,.221709E-2,0
LEMUR-2-EMBRIONOVIS,2023-084AQ,2026-07-02T08:43:45.305184,15.37934897,.00075487,97.6312,328.1499,257.5694,102.4705,0,U,56970,999,17001,.41230564E-3,.15319E-3,0
LEMUR-2-DEVERILL-M-T,2023-100F,2026-07-02T13:37:32.645280,15.40525966,.00050109,99.4457,226.7754,352.1145,8.0015,0,U,57391,999,16361,.65917473E-3,.26718E-3,0
LEMUR-2-BASS,2023-174D,2026-07-02T12:16:58.517760,15.43615925,.00080873,97.3850,268.4428,115.9638,244.2444,0,U,58259,999,14772,.46664929E-3,.2096E-3,0
LEMUR-2-JK0903EM1407,2023-174CJ,2026-07-02T13:16:03.122688,15.52477275,.00046437,97.3930,274.4637,73.7963,286.3801,0,U,58336,999,14811,.4496033E-3,.2748E-3,0
LEMUR-2-MJR092620,2023-174CN,2026-07-02T12:10:20.261280,15.45448019,.00063652,97.3980,273.8231,71.8734,288.3207,0,U,58340,999,14801,.44953061E-3,.21474E-3,0
LEMUR-2-NIMBUS2000,2024-022A,2026-07-02T12:58:20.273088,15.40633822,.0009881,97.4088,33.7389,69.3006,290.9299,0,U,58899,999,13463,.57717914E-3,.23509E-3,0
LEMUR-2-VALHALLA,2024-022B,2026-07-02T12:58:35.703264,15.40141147,.00103896,97.4086,33.7200,65.0713,295.1611,0,U,58900,999,13463,.41808206E-3,.16719E-3,0
LEMUR-2-CAEL,2024-022E,2026-07-02T12:53:50.724096,15.41477067,.00084544,97.4070,34.6798,52.0014,308.1995,0,U,58903,999,13470,.43626896E-3,.18231E-3,0
LEMUR-2-JOHNNYTRUONG,2024-043BA,2026-07-02T09:45:31.434912,15.61639664,.0004628,97.5387,336.0648,130.9750,229.1908,0,U,59146,999,13041,.53210005E-3,.45845E-3,0
LEMUR-2-TOMATOKECHUP,2024-149D,2026-07-02T11:31:18.791040,15.36351722,.00026974,97.3797,265.5683,145.8168,214.3251,0,U,60471,999,10451,.35229928E-3,.12414E-3,0
LEMUR-2-STELLA,2024-149BT,2026-07-02T04:06:22.244256,15.12128587,.00011481,97.6740,265.6937,101.5384,258.5975,0,U,60533,999,10276,.78521518E-3,.13479E-3,0
LEMUR-2-MARHISYAM,2024-149BW,2026-07-02T11:42:38.225088,15.11560020,.00032681,97.6884,266.4769,90.7390,269.4214,0,U,60536,999,10279,.67229523E-3,.11348E-3,0
LEMUR-2-AHMED-ASRAR,2024-149DN,2026-07-02T12:10:21.252288,15.13059698,.00005136,97.7010,268.6488,328.7349,31.3850,0,U,60576,999,10288,.78865348E-3,.13895E-3,0
LEMUR-2-LLOYD,2024-149DP,2026-07-02T11:43:55.676640,15.09540030,.00052284,97.6750,264.6282,101.9069,258.2746,0,U,60577,999,10270,.7460647E-3,.1192E-3,0
LEMUR-2-SQUIRRELCOMM,2024-149DQ,2026-07-02T11:00:03.452256,15.07322444,.00052197,97.6704,264.3223,14.8025,345.3354,0,U,60578,999,10270,.47354367E-3,.7094E-4,0
LEMUR-2-SIERRINI,2024-149DR,2026-07-02T12:20:56.148864,15.11275305,.00063664,97.6844,266.1769,123.5088,236.6750,0,U,60579,999,10277,.84074113E-3,.14106E-3,0
LEMUR-2-WILSON,2025-009CP,2026-07-02T11:41:29.177664,14.95230365,.00029083,97.7021,261.6834,15.7604,344.3707,0,U,62694,999,7964,.2821381E-3,.3046E-4,0
LEMUR-2-STAR-FOX,2025-009CR,2026-07-02T11:25:07.087872,15.02703717,.0004028,97.6947,264.9756,80.7159,279.4522,0,U,62696,999,7985,.66946698E-3,.8884E-4,0
LEMUR-2-ARIANNA,2025-009CU,2026-07-02T04:59:21.193152,15.02696305,.00043539,97.6888,264.4724,85.8139,274.3583,0,U,62699,999,7981,.66676694E-3,.8846E-4,0
LEMUR-2-ALISIA,2025-009DB,2026-07-02T04:23:28.548384,15.02990865,.00030944,97.6944,265.2496,170.5758,189.5526,0,U,62706,999,10241,.77726221E-3,.10404E-3,0
